{
  "type": "FeatureCollection",
  "features": [
    {
      "type": "Feature",
      "properties": {
        "norad_id": 60182,
        "name": "ALOS-4 (DAICHI-4)",
        "group": "resource",
        "lat": -78.81908103937191,
        "lon": -134.66569932354966,
        "alt_km": 639.2443353608815,
        "timestamp": "2025-12-21T09:37:22.306316+00:00",
        "meta_object_name": "ALOS-4 (DAICHI-4)",
        "meta_object_id": "2024-123A",
        "meta_epoch": "2025-12-20T19:27:23.067360",
        "meta_mean_motion": 14.79476697,
        "meta_eccentricity": 0.00013881,
        "meta_inclination": 97.9224,
        "meta_ra_of_asc_node": 89.5428,
        "meta_arg_of_pericenter": 101.339,
        "meta_mean_anomaly": 258.7977,
        "meta_ephemeris_type": 0,
        "meta_classification_type": "U",
        "meta_norad_cat_id": 60182,
        "meta_element_set_no": 999,
        "meta_rev_at_epoch": 7950,
        "meta_bstar": 0.00018374076,
        "meta_mean_motion_dot": 1.321e-05,
        "meta_mean_motion_ddot": 0,
        "tle_line1": "1 60182U 24123A   25354.81068365  .00001321  00000+0  18374-3 0  9997",
        "tle_line2": "2 60182  97.9224  89.5428 0001388 101.3390 258.7977 14.79476697 79501"
      },
      "geometry": {
        "type": "Point",
        "coordinates": [
          -134.66569932354966,
          -78.81908103937191
        ]
      }
    },
    {
      "type": "Feature",
      "properties": {
        "norad_id": 60452,
        "name": "LEGION 3",
        "group": "resource",
        "lat": 39.223259994422804,
        "lon": -41.53791428875377,
        "alt_km": 523.2155138419248,
        "timestamp": "2025-12-21T09:37:22.306326+00:00",
        "meta_object_name": "LEGION 3",
        "meta_object_id": "2024-146A",
        "meta_epoch": "2025-12-21T03:01:01.596288",
        "meta_mean_motion": 15.15840758,
        "meta_eccentricity": 0.0015667,
        "meta_inclination": 45.0016,
        "meta_ra_of_asc_node": 265.175,
        "meta_arg_of_pericenter": 243.7421,
        "meta_mean_anomaly": 116.1848,
        "meta_ephemeris_type": 0,
        "meta_classification_type": "U",
        "meta_norad_cat_id": 60452,
        "meta_element_set_no": 999,
        "meta_rev_at_epoch": 7500,
        "meta_bstar": 0.00016989,
        "meta_mean_motion_dot": 3.047e-05,
        "meta_mean_motion_ddot": 0,
        "tle_line1": "1 60452U 24146A   25355.12571292  .00003047  00000+0  16989-3 0  9992",
        "tle_line2": "2 60452  45.0016 265.1750 0015667 243.7421 116.1848 15.15840758 75004"
      },
      "geometry": {
        "type": "Point",
        "coordinates": [
          -41.53791428875377,
          39.223259994422804
        ]
      }
    },
    {
      "type": "Feature",
      "properties": {
        "norad_id": 60453,
        "name": "LEGION 4",
        "group": "resource",
        "lat": 38.72489712188274,
        "lon": 48.731132569804316,
        "alt_km": 509.7200119033005,
        "timestamp": "2025-12-21T09:37:22.306337+00:00",
        "meta_object_name": "LEGION 4",
        "meta_object_id": "2024-146B",
        "meta_epoch": "2025-12-21T01:26:32.722080",
        "meta_mean_motion": 15.15902748,
        "meta_eccentricity": 0.0008644,
        "meta_inclination": 45.0392,
        "meta_ra_of_asc_node": 357.3017,
        "meta_arg_of_pericenter": 355.9923,
        "meta_mean_anomaly": 4.0885,
        "meta_ephemeris_type": 0,
        "meta_classification_type": "U",
        "meta_norad_cat_id": 60453,
        "meta_element_set_no": 999,
        "meta_rev_at_epoch": 7384,
        "meta_bstar": 0.00019012,
        "meta_mean_motion_dot": 3.442e-05,
        "meta_mean_motion_ddot": 0,
        "tle_line1": "1 60453U 24146B   25355.06010095  .00003442  00000+0  19012-3 0  9994",
        "tle_line2": "2 60453  45.0392 357.3017 0008644 355.9923   4.0885 15.15902748 73846"
      },
      "geometry": {
        "type": "Point",
        "coordinates": [
          48.731132569804316,
          38.72489712188274
        ]
      }
    },
    {
      "type": "Feature",
      "properties": {
        "norad_id": 60989,
        "name": "SENTINEL-2C",
        "group": "resource",
        "lat": -47.86156486801546,
        "lon": 77.34932390008773,
        "alt_km": 796.4733095531092,
        "timestamp": "2025-12-21T09:37:22.306347+00:00",
        "meta_object_name": "SENTINEL-2C",
        "meta_object_id": "2024-157A",
        "meta_epoch": "2025-12-21T04:48:52.493184",
        "meta_mean_motion": 14.30820648,
        "meta_eccentricity": 0.0001195,
        "meta_inclination": 98.5673,
        "meta_ra_of_asc_node": 67.561,
        "meta_arg_of_pericenter": 95.4997,
        "meta_mean_anomaly": 264.6322,
        "meta_ephemeris_type": 0,
        "meta_classification_type": "U",
        "meta_norad_cat_id": 60989,
        "meta_element_set_no": 999,
        "meta_rev_at_epoch": 6753,
        "meta_bstar": 5.7471e-05,
        "meta_mean_motion_dot": 1.07e-06,
        "meta_mean_motion_ddot": 0,
        "tle_line1": "1 60989U 24157A   25355.20060756  .00000107  00000+0  57471-4 0  9992",
        "tle_line2": "2 60989  98.5673  67.5610 0001195  95.4997 264.6322 14.30820648 67538"
      },
      "geometry": {
        "type": "Point",
        "coordinates": [
          77.34932390008773,
          -47.86156486801546
        ]
      }
    },
    {
      "type": "Feature",
      "properties": {
        "norad_id": 61735,
        "name": "IONOSFERA-M 1",
        "group": "resource",
        "lat": -34.001500195578835,
        "lon": -128.86155000081396,
        "alt_km": 822.0478661643656,
        "timestamp": "2025-12-21T09:37:22.306357+00:00",
        "meta_object_name": "IONOSFERA-M 1",
        "meta_object_id": "2024-199A",
        "meta_epoch": "2025-12-21T04:43:15.134016",
        "meta_mean_motion": 14.22715778,
        "meta_eccentricity": 5.52e-05,
        "meta_inclination": 98.7398,
        "meta_ra_of_asc_node": 224.9798,
        "meta_arg_of_pericenter": 11.1584,
        "meta_mean_anomaly": 348.9606,
        "meta_ephemeris_type": 0,
        "meta_classification_type": "U",
        "meta_norad_cat_id": 61735,
        "meta_element_set_no": 999,
        "meta_rev_at_epoch": 10239,
        "meta_bstar": 4.1254e-05,
        "meta_mean_motion_dot": 4.8e-07,
        "meta_mean_motion_ddot": 0,
        "tle_line1": "1 61735U 24199A   25355.19670294  .00000048  00000+0  41254-4 0  9996",
        "tle_line2": "2 61735  98.7398 224.9798 0000552  11.1584 348.9606 14.22715778102396"
      },
      "geometry": {
        "type": "Point",
        "coordinates": [
          -128.86155000081396,
          -34.001500195578835
        ]
      }
    },
    {
      "type": "Feature",
      "properties": {
        "norad_id": 61736,
        "name": "IONOSFERA-M 2",
        "group": "resource",
        "lat": 31.10064079568447,
        "lon": 50.41941163208028,
        "alt_km": 813.5591808641339,
        "timestamp": "2025-12-21T09:37:22.306367+00:00",
        "meta_object_name": "IONOSFERA-M 2",
        "meta_object_id": "2024-199B",
        "meta_epoch": "2025-12-21T05:33:07.543584",
        "meta_mean_motion": 14.2271795,
        "meta_eccentricity": 0.0001817,
        "meta_inclination": 98.7397,
        "meta_ra_of_asc_node": 224.9266,
        "meta_arg_of_pericenter": 99.6585,
        "meta_mean_anomaly": 260.4798,
        "meta_ephemeris_type": 0,
        "meta_classification_type": "U",
        "meta_norad_cat_id": 61736,
        "meta_element_set_no": 999,
        "meta_rev_at_epoch": 10552,
        "meta_bstar": 4.3264e-05,
        "meta_mean_motion_dot": 5.3e-07,
        "meta_mean_motion_ddot": 0,
        "tle_line1": "1 61736U 24199B   25355.23133731  .00000053  00000+0  43264-4 0  9991",
        "tle_line2": "2 61736  98.7397 224.9266 0001817  99.6585 260.4798 14.22717950105525"
      },
      "geometry": {
        "type": "Point",
        "coordinates": [
          50.41941163208028,
          31.10064079568447
        ]
      }
    },
    {
      "type": "Feature",
      "properties": {
        "norad_id": 63772,
        "name": "BIOMASS",
        "group": "resource",
        "lat": -63.18248007368788,
        "lon": -163.4172917721914,
        "alt_km": 676.932279492059,
        "timestamp": "2025-12-21T09:37:22.306377+00:00",
        "meta_object_name": "BIOMASS",
        "meta_object_id": "2025-090A",
        "meta_epoch": "2025-12-21T01:44:01.476384",
        "meta_mean_motion": 14.67531176,
        "meta_eccentricity": 0.0001275,
        "meta_inclination": 98.0692,
        "meta_ra_of_asc_node": 179.9608,
        "meta_arg_of_pericenter": 86.9021,
        "meta_mean_anomaly": 273.233,
        "meta_ephemeris_type": 0,
        "meta_classification_type": "U",
        "meta_norad_cat_id": 63772,
        "meta_element_set_no": 999,
        "meta_rev_at_epoch": 3456,
        "meta_bstar": 0.00016267,
        "meta_mean_motion_dot": 8.74e-06,
        "meta_mean_motion_ddot": 0,
        "tle_line1": "1 63772U 25090A   25355.07223931  .00000874  00000+0  16267-3 0  9991",
        "tle_line2": "2 63772  98.0692 179.9608 0001275  86.9021 273.2330 14.67531176 34561"
      },
      "geometry": {
        "type": "Point",
        "coordinates": [
          -163.4172917721914,
          -63.18248007368788
        ]
      }
    }
  ]
}